{
  "type": "FeatureCollection",
  "features": [
    {
      "type": "Feature",
      "properties": {
        "norad_id": 37846,
        "name": "GSAT0101 (GALILEO-PFM)",
        "group": "gnss",
        "lat": -56.921963178395515,
        "lon": -108.82714139449776,
        "alt_km": 23222.282962657766,
        "timestamp": "2025-12-24T11:33:00.257316+00:00",
        "meta_object_name": "GSAT0101 (GALILEO-PFM)",
        "meta_object_id": "2011-060A",
        "meta_epoch": "2025-12-22T06:52:10.962336",
        "meta_mean_motion": 1.70475741,
        "meta_eccentricity": 0.00032123,
        "meta_inclination": 57.0506,
        "meta_ra_of_asc_node": 346.5611,
        "meta_arg_of_pericenter": 320.0005,
        "meta_mean_anomaly": 39.9838,
        "meta_ephemeris_type": 0,
        "meta_classification_type": "U",
        "meta_norad_cat_id": 37846,
        "meta_element_set_no": 999,
        "meta_rev_at_epoch": 8810,
        "meta_bstar": 0,
        "meta_mean_motion_dot": -6.5e-07,
        "meta_mean_motion_ddot": 0,
        "tle_line1": "1 37846U 11060A   25356.28623799 -.00000065  00000+0  00000+0 0  9993",
        "tle_line2": "2 37846  57.0506 346.5611 0003212 320.0005  39.9838  1.70475741 88100"
      },
      "geometry": {
        "type": "Point",
        "coordinates": [
          -108.82714139449776,
          -56.921963178395515
        ]
      }
    },
    {
      "type": "Feature",
      "properties": {
        "norad_id": 37847,
        "name": "GSAT0102 (GALILEO-FM2)",
        "group": "gnss",
        "lat": -38.14957917205031,
        "lon": -44.13469707163663,
        "alt_km": 23211.31185518097,
        "timestamp": "2025-12-24T11:33:00.257328+00:00",
        "meta_object_name": "GSAT0102 (GALILEO-FM2)",
        "meta_object_id": "2011-060B",
        "meta_epoch": "2025-12-22T11:58:40.586304",
        "meta_mean_motion": 1.70475957,
        "meta_eccentricity": 0.00051595,
        "meta_inclination": 57.0512,
        "meta_ra_of_asc_node": 346.5558,
        "meta_arg_of_pericenter": 313.0615,
        "meta_mean_anomaly": 223.0229,
        "meta_ephemeris_type": 0,
        "meta_classification_type": "U",
        "meta_norad_cat_id": 37847,
        "meta_element_set_no": 999,
        "meta_rev_at_epoch": 8811,
        "meta_bstar": 0,
        "meta_mean_motion_dot": -6.5e-07,
        "meta_mean_motion_ddot": 0,
        "tle_line1": "1 37847U 11060B   25356.49908086 -.00000065  00000+0  00000+0 0  9992",
        "tle_line2": "2 37847  57.0512 346.5558 0005159 313.0615 223.0229  1.70475957 88119"
      },
      "geometry": {
        "type": "Point",
        "coordinates": [
          -44.13469707163663,
          -38.14957917205031
        ]
      }
    },
    {
      "type": "Feature",
      "properties": {
        "norad_id": 37867,
        "name": "COSMOS 2476 (744)",
        "group": "gnss",
        "lat": 48.387132097542434,
        "lon": 110.15338559604965,
        "alt_km": 19186.91590142315,
        "timestamp": "2025-12-24T11:33:00.257351+00:00",
        "meta_object_name": "COSMOS 2476 (744)",
        "meta_object_id": "2011-064A",
        "meta_epoch": "2025-12-23T12:51:54.046080",
        "meta_mean_motion": 2.13103692,
        "meta_eccentricity": 0.00245495,
        "meta_inclination": 65.1675,
        "meta_ra_of_asc_node": 78.8064,
        "meta_arg_of_pericenter": 235.5256,
        "meta_mean_anomaly": 174.828,
        "meta_ephemeris_type": 0,
        "meta_classification_type": "U",
        "meta_norad_cat_id": 37867,
        "meta_element_set_no": 999,
        "meta_rev_at_epoch": 11002,
        "meta_bstar": 0,
        "meta_mean_motion_dot": 1e-08,
        "meta_mean_motion_ddot": 0,
        "tle_line1": "1 37867U 11064A   25357.53604220  .00000001  00000+0  00000+0 0  9996",
        "tle_line2": "2 37867  65.1675  78.8064 0024549 235.5256 174.8280  2.13103692110029"
      },
      "geometry": {
        "type": "Point",
        "coordinates": [
          110.15338559604965,
          48.387132097542434
        ]
      }
    },
    {
      "type": "Feature",
      "properties": {
        "norad_id": 37868,
        "name": "COSMOS 2477 (745)",
        "group": "gnss",
        "lat": -49.1109467085432,
        "lon": -68.87477761511127,
        "alt_km": 19080.537580687807,
        "timestamp": "2025-12-24T11:33:00.257364+00:00",
        "meta_object_name": "COSMOS 2477 (745)",
        "meta_object_id": "2011-064B",
        "meta_epoch": "2025-12-23T05:19:57.056160",
        "meta_mean_motion": 2.13103036,
        "meta_eccentricity": 0.00215459,
        "meta_inclination": 65.1742,
        "meta_ra_of_asc_node": 78.8944,
        "meta_arg_of_pericenter": 235.4149,
        "meta_mean_anomaly": 115.0574,
        "meta_ephemeris_type": 0,
        "meta_classification_type": "U",
        "meta_norad_cat_id": 37868,
        "meta_element_set_no": 999,
        "meta_rev_at_epoch": 11000,
        "meta_bstar": 0,
        "meta_mean_motion_dot": 0,
        "meta_mean_motion_ddot": 0,
        "tle_line1": "1 37868U 11064B   25357.22218815  .00000000  00000+0  00000+0 0  9993",
        "tle_line2": "2 37868  65.1742  78.8944 0021545 235.4149 115.0574  2.13103036110008"
      },
      "geometry": {
        "type": "Point",
        "coordinates": [
          -68.87477761511127,
          -49.1109467085432
        ]
      }
    },
    {
      "type": "Feature",
      "properties": {
        "norad_id": 37869,
        "name": "COSMOS 2475 (743)",
        "group": "gnss",
        "lat": -10.905396983031936,
        "lon": -96.00744198363205,
        "alt_km": 19094.706885405147,
        "timestamp": "2025-12-24T11:33:00.257377+00:00",
        "meta_object_name": "COSMOS 2475 (743)",
        "meta_object_id": "2011-064C",
        "meta_epoch": "2025-12-23T10:47:00.283776",
        "meta_mean_motion": 2.13101666,
        "meta_eccentricity": 0.00267392,
        "meta_inclination": 65.1811,
        "meta_ra_of_asc_node": 78.907,
        "meta_arg_of_pericenter": 249.1906,
        "meta_mean_anomaly": 231.4149,
        "meta_ephemeris_type": 0,
        "meta_classification_type": "U",
        "meta_norad_cat_id": 37869,
        "meta_element_set_no": 999,
        "meta_rev_at_epoch": 11002,
        "meta_bstar": 0,
        "meta_mean_motion_dot": 1e-08,
        "meta_mean_motion_ddot": 0,
        "tle_line1": "1 37869U 11064C   25357.44930884  .00000001  00000+0  00000+0 0  9996",
        "tle_line2": "2 37869  65.1811  78.9070 0026739 249.1906 231.4149  2.13101666110020"
      },
      "geometry": {
        "type": "Point",
        "coordinates": [
          -96.00744198363205,
          -10.905396983031936
        ]
      }
    },
    {
      "type": "Feature",
      "properties": {
        "norad_id": 37948,
        "name": "BEIDOU-2 IGSO-5 (C10)",
        "group": "gnss",
        "lat": 47.8387850430326,
        "lon": -2.999923894804181,
        "alt_km": 36109.46654917716,
        "timestamp": "2025-12-24T11:33:00.257390+00:00",
        "meta_object_name": "BEIDOU-2 IGSO-5 (C10)",
        "meta_object_id": "2011-073A",
        "meta_epoch": "2025-12-23T15:38:27.014784",
        "meta_mean_motion": 1.00288757,
        "meta_eccentricity": 0.01097443,
        "meta_inclination": 47.9999,
        "meta_ra_of_asc_node": 273.7252,
        "meta_arg_of_pericenter": 222.2004,
        "meta_mean_anomaly": 284.7176,
        "meta_ephemeris_type": 0,
        "meta_classification_type": "U",
        "meta_norad_cat_id": 37948,
        "meta_element_set_no": 999,
        "meta_rev_at_epoch": 5137,
        "meta_bstar": 0,
        "meta_mean_motion_dot": -1.38e-06,
        "meta_mean_motion_ddot": 0,
        "tle_line1": "1 37948U 11073A   25357.65170156 -.00000138  00000+0  00000+0 0  9997",
        "tle_line2": "2 37948  47.9999 273.7252 0109744 222.2004 284.7176  1.00288757 51374"
      },
      "geometry": {
        "type": "Point",
        "coordinates": [
          -2.999923894804181,
          47.8387850430326
        ]
      }
    },
    {
      "type": "Feature",
      "properties": {
        "norad_id": 37951,
        "name": "LUCH 5A (SDCM/PRN 140)",
        "group": "gnss",
        "lat": -0.40029185278535784,
        "lon": 73.57504715947462,
        "alt_km": 35808.29921788988,
        "timestamp": "2025-12-24T11:33:00.257408+00:00",
        "meta_object_name": "LUCH 5A (SDCM/PRN 140)",
        "meta_object_id": "2011-074B",
        "meta_epoch": "2025-12-23T22:29:13.184160",
        "meta_mean_motion": 1.0026901,
        "meta_eccentricity": 0.0005212,
        "meta_inclination": 8.3065,
        "meta_ra_of_asc_node": 76.4197,
        "meta_arg_of_pericenter": 191.4853,
        "meta_mean_anomaly": 329.1523,
        "meta_ephemeris_type": 0,
        "meta_classification_type": "U",
        "meta_norad_cat_id": 37951,
        "meta_element_set_no": 999,
        "meta_rev_at_epoch": 5129,
        "meta_bstar": 0,
        "meta_mean_motion_dot": -3.2e-07,
        "meta_mean_motion_ddot": 0,
        "tle_line1": "1 37951U 11074B   25357.93695815 -.00000032  00000+0  00000+0 0  9990",
        "tle_line2": "2 37951   8.3065  76.4197 0005212 191.4853 329.1523  1.00269010 51295"
      },
      "geometry": {
        "type": "Point",
        "coordinates": [
          73.57504715947462,
          -0.40029185278535784
        ]
      }
    }
  ]
}